STARLINK-4311           
1 53062U 22077V   22200.58334491 -.00016111  00000+0 -13230-3 0  9990
2 53062  97.6596  18.9298 0001399  82.2863 138.3358 15.70245152  1305
STARLINK-4307           
1 53063U 22077W   22200.58334491 -.00009529  00000+0 -77697-4 0  9994
2 53063  97.6618  18.9326 0001110  74.8508 148.7485 15.70259302  1305
STARLINK-4313           
1 53064U 22077X   22200.58334491 -.00010916  00000+0 -89276-4 0  9993
2 53064  97.6596  18.9307 0001166  77.0658 144.7410 15.70233149  1307
STARLINK-4312           
1 53065U 22077Y   22200.58334491 -.00133818  00000+0 -11148-2 0  9992
2 53065  97.6577  18.9322 0001029  78.3422 145.6956 15.70409692  1308
STARLINK-4309           
1 53066U 22077Z   22200.58334491 -.00018482  00000+0 -15193-3 0  9997
2 53066  97.6611  18.9318 0001164  97.6067 125.3401 15.70251998  1306
STARLINK-4306           
1 53067U 22077AA  22200.58334491 -.00015832  00000+0 -12986-3 0  9991
2 53067  97.6600  18.9337 0001113  57.2850 168.6153 15.70269127  1309
STARLINK-4325           
1 53068U 22077AB  22200.58334491 -.00002535  00000+0 -19820-4 0  9993
2 53068  97.6590  18.9323 0001060  72.1050 152.7101 15.70305604  1300
STARLINK-4323           
1 53069U 22077AC  22200.58334491 -.00118796  00000+0 -98798-3 0  9991
2 53069  97.6579  18.9335 0000693  80.7345 146.2405 15.70405402  1306
STARLINK-4342           
1 53070U 22077AD  22200.58334491 -.00015190  00000+0 -12440-3 0  9997
2 53070  97.6606  18.9333 0001172  72.6872 152.6587 15.70294785  1307
STARLINK-4328           
1 53071U 22077AE  22200.58334491 -.00190001  00000+0 -15893-2 0  9997
2 53071  97.6599  18.9348 0001496  81.2478 146.9851 15.70476970  1300
STARLINK-4344           
1 53072U 22077AF  22200.58334491 -.00008666  00000+0 -70218-4 0  9997
2 53072  97.6570  18.9329 0001248  76.9294 149.3534 15.70373103  1300
STARLINK-4346           
1 53073U 22077AG  22200.58334491 -.00111492  00000+0 -92880-3 0  9998
2 53073  97.6604  18.9358 0001493  84.9901 144.6325 15.70340059  1307
STARLINK-4310           
1 53074U 22077AH  22200.58334491 -.00112178  00000+0 -93399-3 0  9997
2 53074  97.6585  18.9336 0000914  81.4645 146.3119 15.70357336  1302
STARLINK-4348           
1 53075U 22077AJ  22200.58334491 -.00010276  00000+0 -83537-4 0  9998
2 53075  97.6572  18.9358 0000436  73.0795 157.3576 15.70359021  1307
STARLINK-4347           
1 53076U 22077AK  22200.58334491 -.00111434  00000+0 -92842-3 0  9995
2 53076  97.6598  18.9347 0001271  76.3525 152.6584 15.70337828  1307
STARLINK-4315           
1 53077U 22077AL  22200.58334491 -.00014632  00000+0 -12005-3 0  9991
2 53077  97.6605  18.9370 0001115  81.5675 150.3996 15.70241859  1304
STARLINK-4322           
1 53078U 22077AM  22200.58334491 -.00004563  00000+0 -36582-4 0  9991
2 53078  97.6618  18.9357 0001305  77.6964 152.4391 15.70282012  1300
STARLINK-4327           
1 53079U 22077AN  22200.58334491 -.00008686  00000+0 -70417-4 0  9997
2 53079  97.6573  18.9368 0001637  82.9328 149.2923 15.70361169  1300
STARLINK-4330           
1 53080U 22077AP  22200.58334491 -.00018803  00000+0 -15436-3 0  9990
2 53080  97.6606  18.9361 0001334  66.4752 164.8985 15.70288541  1307
STARLINK-4326           
1 53081U 22077AQ  22200.58334491 -.00016134  00000+0 -13248-3 0  9995
2 53081  97.6606  18.9377 0001168  85.5913 148.2015 15.70246725  1309
STARLINK-4321           
1 53082U 22077AR  22200.58334491 -.00087474  00000+0 -72829-3 0  9991
2 53082  97.6609  18.9367 0001442  82.6950 150.4880 15.70277988  1306
STARLINK-4251           
1 53083U 22077AS  22200.58334491 -.00000202  00000+0 -57765-6 0  9991
2 53083  97.6552  18.9430 0001667  62.2961 190.7342 15.70276714  1306
STARLINK-4319           
1 53084U 22077AT  22200.58334491 -.00011094  00000+0 -90318-4 0  9992
2 53084  97.6579  18.9374 0000871  94.1412 139.8561 15.70350279  1928
STARLINK-4324           
1 53085U 22077AU  22200.58334491 -.00104893  00000+0 -87058-3 0  9999
2 53085  97.6598  18.9392 0001509  77.7294 158.2477 15.70409197  1301
STARLINK-4318           
1 53086U 22077AV  22200.58334491 -.00085237  00000+0 -70610-3 0  9996
2 53086  97.6581  18.9378 0001104  86.7291 148.5305 15.70392839  1302
STARLINK-4329           
1 53087U 22077AW  22200.58334491 -.00069411  00000+0 -57723-3 0  9993
2 53087  97.6620  18.9402 0001360  83.6704 153.6729 15.70245046  1308
STARLINK-4333           
1 53088U 22077AX  22200.58334491 -.00030892  00000+0 -25512-3 0  9996
2 53088  97.6612  18.9390 0001460  81.3254 155.4350 15.70244852  1306
FALCON 9 DEB            
1 53089U 22077AY  22198.73322148  .00155352  00000+0  58353-3 0  9992
2 53089  97.6760  16.9832 0008806 230.9853 129.0634 15.87378346  1067
FALCON 9 DEB            
1 53090U 22077AZ  22198.73162086  .00163927  00000+0  60239-3 0  9990
2 53090  97.6746  16.9842 0007314 213.1589 146.9224 15.87824262  1062
FALCON 9 DEB            
1 53091U 22077BA  22198.72720924  .00169788  12580-4  59976-3 0  9999
2 53091  97.6701  16.9860 0012340 212.9899 147.0604 15.88968355  1067
FALCON 9 DEB            
1 53092U 22077BB  22198.72582966  .00165813  12139-4  57694-3 0  9992
2 53092  97.6690  16.9866 0012252 197.7510 162.3335 15.89274430  1069
TIANLIAN 2-03           
1 53100U 22078A   22194.13372968 -.00179803 -28039-6 -12696-1 0  9999
2 53100  27.1659 175.2503 7307002 174.6584 353.4153  2.27743757    17
CZ-3B R/B               
1 53101U 22078B   22200.25460500  .00043725  68216-6  10375-2 0  9995
2 53101  27.1241 173.2621 7244715 177.7648 189.7933  2.37293800   162
LARES-2                 
1 53105U 22080A   22199.85025910 -.00000018  00000+0  00000+0 0  9997
2 53105  70.1473  75.5424 0005886 285.1106  74.9035  6.38964880   342
2022-080B               
1 53106U 22080B   22199.66542189 -.00000003  00000+0  00000+0 0  9993
2 53106  70.1478  75.6050 0008642 243.1207 116.8562  6.42567501   326
2022-080C               
1 53107U 22080C   22198.17845311 -.00000003  00000+0  00000+0 0  9992
2 53107  70.1476  76.1250 0011582 253.7938 261.1306  6.42121727   122
2022-080D               
1 53108U 22080D   22200.29161985 -.00000003  00000+0  00000+0 0  9998
2 53108  70.0017  75.4272 0015432 250.6917 109.4018  6.42150429   271
2022-080E               
1 53109U 22080E   22200.59903346 -.00000003  00000+0  00000+0 0  9997
2 53109  70.1440  75.0868 0008935 242.6893 117.2866  6.42584148   271
2022-080F               
1 53110U 22080F   22200.28833015 -.00000003  00000+0  00000+0 0  9990
2 53110  70.1415  75.3902 0028111 144.2919 215.8264  6.42534621   257
2022-080G               
1 53111U 22080G   22199.04297027 -.00000003  00000+0  00000+0 0  9999
2 53111  70.1436  75.8422 0007664 221.4548 138.3862  6.42534474   168
2022-080H               
1 53112U 22080H   22197.22866146 -.00000003  00000+0  00000+0 0  9992
2 53112  70.1463  76.4508 0010840 259.7188 224.1212  6.42613720    58
DRAGON CRS-25           
1 53113U 22081A   22200.38661497  .00008570  00000+0  15780-3 0  9999
2 53113  51.6408 177.1044 0004978  27.2807 128.3689 15.50026916350175
SUPERVIEW NEO-2 O1      
1 53128U 22082A   22200.56519257  .00005165  00000+0  21244-3 0  9991
2 53128  97.3853 208.5097 0011433 252.3922 222.7473 15.24536949   559
CZ-2C DEB               
1 53129U 22082B   22200.47759093  .00024319  00000+0  97271-3 0  9991
2 53129  97.3848 208.4246 0011426 260.2906  99.7046 15.25026178   547
SUPERVIEW NEO-2 02      
1 53130U 22082C   22200.56328876  .00005192  00000+0  20848-3 0  9998
2 53130  97.3847 208.5119 0011933 270.2909 204.7566 15.25337922   553
CZ-2C R/B               
1 53131U 22082D   22200.58331641  .00011136  00000+0  30989-3 0  9997
2 53131  97.3585 208.5242 0048962   1.1248 359.0092 15.35767887   566
